[{"line1":"1 51875U 22022Z   22221.58334491  .00015725  00000-0  10046-2 0  9993","line2":"2 51875  53.2190 121.4261 0001620  63.5385  94.7508 15.08813761  1301"},{"line1":"1 51876U 22022AA  22221.58334491  .00033771  00000-0  21319-2 0  9990","line2":"2 51876  53.2164 121.4250 0001985  65.5604  37.9256 15.08803681  1300"},{"line1":"1 51877U 22022AB  22221.58334491  .00045594  00000-0  28678-2 0  9992","line2":"2 51877  53.2160 111.4328 0001886  69.0618 129.4532 15.08796523  1306"},{"line1":"1 51878U 22022AC  22221.58334491  .00040862  00000-0  25742-2 0  9995","line2":"2 51878  53.2185 121.4263 0002061  62.9484  80.5512 15.08789691  1305"},{"line1":"1 51879U 22022AD  22221.91667824 -.00012309  00000-0 -75697-3 0  9994","line2":"2 51879  53.2162 109.9396 0001962  66.0841 183.9847 15.08820430 25818"},{"line1":"1 51880U 22022AE  22221.58334491  .00044521  00000-0  28021-2 0  9997","line2":"2 51880  53.2175 121.4537 0002238  71.1999 267.0921 15.08783486  1302"},{"line1":"1 51881U 22022AF  22221.58334491  .00036943  00000-0  23302-2 0  9994","line2":"2 51881  53.2166 111.4398 0002179  67.5600 210.9479 15.08791588  1306"},{"line1":"1 51882U 22022AG  22221.58334491  .00031978  00000-0  20206-2 0  9998","line2":"2 51882  53.2149 111.4326 0001756  67.4929 150.9771 15.08795924  1308"},{"line1":"1 51883U 22022AH  22221.91667824 -.00015586  00000-0 -96357-3 0  9995","line2":"2 51883  53.2179 109.9503 0001826  57.1459 267.7050 15.08827784 25801"},{"line1":"1 51884U 22022AJ  22221.91667824 -.00012837  00000-0 -79026-3 0  9996","line2":"2 51884  53.2162 109.9386 0001795  62.0767 207.9845 15.08823283 25892"},{"line1":"1 51885U 22022AK  22221.58334491  .00043257  00000-0  27233-2 0  9991","line2":"2 51885  53.2180 111.4461 0002218  70.8432 267.6636 15.08786459  1306"},{"line1":"1 51886U 22022AL  22221.91667824 -.00014785  00000-0 -91322-3 0  9995","line2":"2 51886  53.2172 109.9467 0002260  63.5088 246.5400 15.08818578 25814"},{"line1":"1 51887U 22022AM  22221.58334491  .00016215  00000-0  10355-2 0  9994","line2":"2 51887  53.2179 111.4450 0002123  65.9308 292.5691 15.08805414  1307"},{"line1":"1 51888U 22022AN  22221.91667824 -.00014952  00000-0 -92357-3 0  9992","line2":"2 51888  53.2178 109.9491 0002010  67.5936 262.4737 15.08826317 25818"},{"line1":"1 51889U 22022AP  22221.58334491  .00016504  00000-0  10533-2 0  9995","line2":"2 51889  53.2187 111.4351 0001444  66.9616 351.4738 15.08816665  1303"},{"line1":"1 51890U 22022AQ  22221.58334491  .00045883  00000-0  28870-2 0  9992","line2":"2 51890  53.2189 111.4394 0002134  67.1964 311.3046 15.08780423  1309"},{"line1":"1 51891U 22022AR  22221.91667824 -.00018015  00000-0 -11170-2 0  9993","line2":"2 51891  53.2186 109.9336 0002144  68.6130  21.4137 15.08825445 25868"},{"line1":"1 51892U 22022AS  22221.58334491  .00055855  00000-0  35048-2 0  9999","line2":"2 51892  53.2195 111.4393 0002060  69.2169 329.2969 15.08788576  1304"},{"line1":"1 51893U 22022AT  22221.58334491  .00036655  00000-0  23115-2 0  9999","line2":"2 51893  53.2179 111.4255 0001758  66.9078  51.5840 15.08804074  1305"},{"line1":"1 51894U 22022AU  22221.58334491  .00007237  00000-0  47271-3 0  9994","line2":"2 51894  53.2187 111.4289 0002050  63.8582  34.6432 15.08810185  1303"},{"line1":"1 51895U 22022AV  22221.58334491  .00047895  00000-0  30108-2 0  9999","line2":"2 51895  53.2173 111.4247 0001741  58.1038  80.4040 15.08794419  1307"},{"line1":"1 51896U 22022AW  22221.91667824 -.00015651  00000-0 -96742-3 0  9990","line2":"2 51896  53.2172 109.9286 0002412  56.6414  88.1574 15.08837167 25861"},{"line1":"1 51897U 22022AX  22221.91667824 -.00032726  00000-0 -20477-2 0  9994","line2":"2 51897  53.2182 109.9324 0001608  68.1996 101.8587 15.08835798 25815"},{"line1":"1 51898U 22022AY  22221.58334491  .00048855  00000-0  30706-2 0  9993","line2":"2 51898  53.2178 111.4263 0001597  72.8066 105.6983 15.08791676  1304"},{"line1":"1 51899U 22022AZ  22106.93457928  .11345680  12603-4  17544-3 0  9996","line2":"2 51899  53.2097 276.5966 0007933 285.2461  74.7714 16.47930048  7101"},{"line1":"1 51900U 22022BA  22102.83423044  .05080379  12202-4  71893-3 0  9992","line2":"2 51900  53.2064 297.9614 0009682 288.0303  71.9688 16.33983610  6447"},{"line1":"1 51901U 22022BB  22102.98601088  .11583608  12587-4  20077-3 0  9999","line2":"2 51901  53.2015 296.7419 0006078 287.6121  72.4267 16.47499309  6477"},{"line1":"1 51902U 22022BC  22101.99687405  .05853690  12283-4  63289-3 0  9996","line2":"2 51902  53.2059 301.9477 0008792 288.3355  71.6735 16.36499900  6310"},{"line1":"1 51907U 82092BSH 22089.98186719  .01395066  00000-0  15818-1 0  9997","line2":"2 51907  82.5902 350.1036 0026882 272.1876  87.6302 15.59273436  6767"},{"line1":"1 51908U 82092BSJ 22097.14333929  .07187894  18018+0  23992-1 0  9995","line2":"2 51908  82.5859 343.1964 0022083 237.4704 122.4441 15.99328220  7897"},{"line1":"1 51909U 82092BSK 22221.43991329  .00048813  00000-0  12493-2 0  9999","line2":"2 51909  82.6056 220.8235 0087975 266.6384  92.4792 15.35241474 26788"},{"line1":"1 51910U 82092BSL 22104.68494491  .05631680  50187-1  17810-1 0  9990","line2":"2 51910  82.5952 336.6054 0024565 283.6380  76.2160 15.95505728  9028"},{"line1":"1 51913U 82092BSP 22221.41743324  .00015711  00000-0  44397-3 0  9992","line2":"2 51913  82.6283 217.6914 0009300 202.0298 158.0548 15.36175970 26402"},{"line1":"1 51914U 82092BSQ 22221.39249630  .00169965  00000-0  16716-2 0  9995","line2":"2 51914  82.5579 210.8689 0008410 228.8219 131.2315 15.65418562 27151"},{"line1":"1 51915U 82092BSR 22120.26209337  .02262399  30255-2  81216-2 0  9991","line2":"2 51915  82.5396 314.0277 0013183 275.0055  84.9713 15.89360494 11542"},{"line1":"1 51917U 82092BST 22221.70431364  .00030182  00000-0  73629-3 0  9995","line2":"2 51917  82.5711 214.9857 0023168 250.9275 108.9462 15.40439104 26475"},{"line1":"1 51918U 82092BSU 22110.07511247  .01256710  00000-0  64080-2 0  9990","line2":"2 51918  82.5925 326.6442 0010779 222.2914 137.7522 15.78569392  9944"},{"line1":"1 51919U 82092BSV 22100.38747016  .03204603  98496-2  11234-1 0  9995","line2":"2 51919  82.5373 334.9268 0008988 264.6447  95.3801 15.91655834  8456"},{"line1":"1 51920U 82092BSW 22221.42063871  .00019926  00000-0  49116-3 0  9999","line2":"2 51920  82.5015 211.4064 0019352 102.1017 258.2398 15.40227760 29068"},{"line1":"1 51922U 82092BSY 22221.25630768  .00019141  00000-0  66813-3 0  9999","line2":"2 51922  82.5845 219.7208 0047988 184.8311 175.2474 15.28343011 26729"},{"line1":"1 51923U 82092BSZ 22112.98764622  .05592169  10715+0  11288-1 0  9994","line2":"2 51923  82.2870 319.4784 0019867 275.5322  84.3691 16.07039772  9273"},{"line1":"1 51925U 82092BTB 22101.65460103  .13845559 -11890-5  75979-2 0  9998","line2":"2 51925  82.5569 334.4176 0012488 221.0972 138.9377 16.19420507  7597"},{"line1":"1 51930U 82092BTG 22221.45355562  .00487147  00000-0  75627-2 0  9993","line2":"2 51930  82.4875 226.3711 0070101 261.3958  97.9346 15.49640674 25033"},{"line1":"1 51931U 82092BTH 22221.30959487  .00059384  00000-0  23382-2 0  9993","line2":"2 51931  82.7043 231.4144 0101511 244.6162 114.4538 15.20642897 25173"},{"line1":"1 51932U 82092BTJ 22211.35293160  .00019125  00000-0  56669-3 0  9991","line2":"2 51932  82.9063 241.4707 0047117 217.5505 142.2446 15.33593182 23918"},{"line1":"1 51934U 82092BTL 22087.99529891  .00347773  00000-0  35908-2 0  9992","line2":"2 51934  83.0737 357.3283 0017924 110.9760 249.3420 15.63504381  5117"},{"line1":"1 51936U 82092BTN 22221.75564017  .00121631  00000-0  22484-2 0  9995","line2":"2 51936  82.8328 227.5249 0036598 217.0295 142.8430 15.47866116 25762"},{"line1":"1 51937U 82092BTP 22116.33187394  .00206536  00000-0  41925-2 0  9991","line2":"2 51937  82.8755 329.7354 0031595 228.6304 131.2228 15.45058125  9322"},{"line1":"1 51938U 82092BTQ 22075.52843598  .00400546  00000-0  12066-1 0  9992","line2":"2 51938  82.5337  13.0513 0336947  84.2213 279.7311 14.92589021  2925"},{"line1":"1 51939U 82092BTR 22126.80072441  .00129273  00000-0  46738-2 0  9991","line2":"2 51939  83.1100 328.3374 0068853 200.0519 159.8015 15.25677006 10671"},{"line1":"1 51940U 82092BTS 22080.54199510  .00077060  00000-0  68086-2 0  9996","line2":"2 51940  82.5966  14.4536 0433563  63.3023 301.1871 14.44363784  3661"},{"line1":"1 51942U 82092BTU 22221.33714762  .00260997  00000-0  87627-2 0  9999","line2":"2 51942  82.7044 241.8561 0148916 291.4954  67.0459 15.19951042 25171"},{"line1":"1 51943U 82092BTV 22161.69612797  .00426736  00000-0  82936-2 0  9990","line2":"2 51943  83.2361 305.0276 0062808  93.4764 267.3672 15.44024688 15929"},{"line1":"1 51945U 82092BTX 22072.56611571  .00345774  00000-0  14025-1 0  9993","line2":"2 51945  82.2527   6.5542 0225893  79.2365 283.4200 15.03271691  4913"},{"line1":"1 51946U 22023A   22221.83057279  .00007680  00000-0  33010-3 0  9995","line2":"2 51946  63.4543  16.0159 0035112 333.5239 181.5638 15.22872700 24006"},{"line1":"1 51947U 22023B   22221.81294071  .00006769  00000-0  29363-3 0  9990","line2":"2 51947  63.4520  16.0137 0034079 332.6622  93.0607 15.22735253 24009"},{"line1":"1 51948U 22023C   22221.89974301  .00013871  00000-0  58908-3 0  9999","line2":"2 51948  63.4477  15.6674 0033023 331.1585 186.3887 15.22848299 24014"},{"line1":"1 51949U 22023D   22221.90385671  .00007790  00000-0  33690-3 0  9992","line2":"2 51949  63.4513  15.7651 0032611 332.9540 190.5114 15.22720202 24017"},{"line1":"1 51950U 22023E   22221.83752402  .00008988  00000-0  38655-3 0  9992","line2":"2 51950  63.4473  15.9306 0031276 333.8947 176.2875 15.22808123 24003"},{"line1":"1 51951U 22023F   22221.83934449  .00007992  00000-0  34426-3 0  9992","line2":"2 51951  63.4439  15.8851 0031624 330.8524 174.2761 15.22857683 24002"},{"line1":"1 51952U 22023G   22221.85817339  .00003884  00000-0  15283-3 0  9999","line2":"2 51952  63.4410  13.2850 0034267 333.4627 176.0194 15.26916622 24050"}]